PHASE 3B (AO-10)        
1 14129U 83058B   21005.79784508  .00000411  00000-0  00000-0 0  9993
2 14129  25.7619 181.8418 6070844 298.7938  13.7724  2.05866333254578
UOSAT 2 (UO-11)         
1 14781U 84021B   21007.09631566  .00000107  00000-0  19196-4 0  9990
2 14781  97.5895  14.9235 0007031 248.4807 111.5659 14.83234876983019
LUSAT (LO-19)           
1 20442U 90005G   21006.84362474 -.00000002  00000-0  15923-4 0  9990
2 20442  98.7202 321.0387 0010678 277.5680  82.4291 14.32972745617681
EYESAT A (AO-27)        
1 22825U 93061C   21006.90100637 -.00000005  00000-0  16227-4 0  9991
2 22825  98.9243  20.4887 0009092 139.9219 220.2635 14.30102868422897
ITAMSAT (IO-26)         
1 22826U 93061D   21006.90957171 -.00000002  00000-0  16996-4 0  9995
2 22826  98.9183  20.4220 0009768 128.8792 231.3262 14.30440328423138
RADIO ROSTO (RS-15)     
1 23439U 94085A   21006.93224922 -.00000037  00000-0  15882-3 0  9997
2 23439  64.8165 277.1870 0155660   4.2597 355.9612 11.27569955 72128
JAS-2 (FO-29)           
1 24278U 96046B   21006.80849211 -.00000068  00000-0 -31719-4 0  9991
2 24278  98.5859  96.0835 0349988 208.1949 149.9846 13.53101759204387
TECHSAT 1B (GO-32)      
1 25397U 98043D   21006.90479528 -.00000003  00000-0  18224-4 0  9998
2 25397  98.7530 313.0678 0001473 145.3599 214.7676 14.23698798168723
ISS (ZARYA)             
1 25544U 98067A   21007.32953112  .00000789  00000-0  22255-4 0  9990
2 25544  51.6452  58.3686 0000693 182.6292 276.9175 15.49260299263666
PCSAT (NO-44)           
1 26931U 01043C   21007.17274851 -.00000021  00000-0  23893-4 0  9997
2 26931  67.0522 336.6634 0007428 272.5661  87.4590 14.30601859  6282
SAUDISAT 1C (SO-50)     
1 27607U 02058C   21006.60913127  .00000036  00000-0  25443-4 0  9996
2 27607  64.5559 113.2264 0029429  94.3263 266.1203 14.75700096970690
CUTE-1 (CO-55)          
1 27844U 03031E   21006.88569222  .00000053  00000-0  43639-4 0  9990
2 27844  98.6816  17.5420 0009828 180.7789 179.3375 14.22280505909014
CUBESAT XI-IV (CO-57)   
1 27848U 03031J   21006.90140307  .00000042  00000-0  38779-4 0  9993
2 27848  98.6877  18.1253 0009492 193.6311 166.4612 14.21861556908859
MOZHAYETS 4 (RS-22)     
1 27939U 03042A   21007.06780432  .00000013  00000-0  11099-4 0  9997
2 27939  98.1159 145.5462 0014109  72.9415 287.3314 14.66929909923866
CUBESAT XI-V            
1 28895U 05043F   21006.90956539  .00000152  00000-0  38011-4 0  9994
2 28895  98.0352 143.9260 0016676   3.9939 356.1393 14.63850937810370
CUTE-1.7+APD II (CO-65) 
1 32785U 08021C   21006.74567348  .00000336  00000-0  41635-4 0  9994
2 32785  97.5935 352.0552 0013060 172.6395 187.5017 14.88606501688112
DELFI-C3 (DO-64)        
1 32789U 08021G   21007.11193400  .00002011  00000-0  13319-3 0  9993
2 32789  97.3959  48.5866 0011254 344.2846  15.8032 15.08368875692607
SEEDS II (CO-66)        
1 32791U 08021J   21006.92924272  .00000518  00000-0  57353-4 0  9990
2 32791  97.5564 358.2798 0014126 139.5646 220.6626 14.91239776688780
YUBILEINY (RS-30)       
1 32953U 08025A   21007.01991806  .00000028  00000-0  12906-3 0  9992
2 32953  82.5031 151.3323 0018761 330.6638  29.3385 12.43099408572928
KKS-1 (KISEKI)          
1 33499U 09002H   21006.81685816  .00000130  00000-0  27040-4 0  9992
2 33499  98.2899 232.9509 0008769 189.0280 171.0772 14.75604015642575
SWISSCUBE               
1 35932U 09051B   21006.77835280  .00000151  00000-0  45111-4 0  9999
2 35932  98.6066 201.6309 0006899 217.6421 142.4294 14.56473334599420
BEESAT-1                
1 35933U 09051C   21006.81949365  .00000129  00000-0  39944-4 0  9997
2 35933  98.6044 203.5310 0004913 230.1350 129.9416 14.56539126599503
ITUPSAT1                
1 35935U 09051E   21006.79647936  .00000099  00000-0  33969-4 0  9992
2 35935  98.6150 203.6757 0007229 232.3115 127.7427 14.55677460599258
XIWANG-1 (HOPE-1)       
1 36122U 09072B   21006.71683782 -.00000066  00000-0 -61395-4 0  9995
2 36122 100.1119 354.2239 0008181 114.3518 245.8425 13.16357940531613
JUGNU                   
1 37839U 11058B   21006.72317052  .00000307  00000-0  21794-4 0  9998
2 37839  19.9605 130.0342 0018962 108.8988  29.9412 14.12699497477561
SRMSAT                  
1 37841U 11058D   21006.85899503  .00000291  00000-0  14686-4 0  9995
2 37841  19.9702 197.7518 0011847 318.7405  69.2444 14.10682358476880
M-CUBED & EXP-1 PRIME   
1 37855U 11061F   21007.12645560  .00002361  00000-0  12148-3 0  9997
2 37855 101.7261 206.8572 0168735 190.2489 169.5268 15.07051817502347
STRAND-1                
1 39090U 13009E   21007.07850731  .00000027  00000-0  24629-4 0  9991
2 39090  98.4369 212.9606 0009903  44.1756 316.0219 14.35162696411917
SOMP                    
1 39134U 13015E   21006.69603655  .00002506  00000-0  11848-3 0  9997
2 39134  64.8647 338.1946 0014008 219.2150 140.7964 15.21843582426590
BEESAT-3                
1 39135U 13015F   21007.08684295  .00001793  00000-0  94994-4 0  9992
2 39135  64.8671   3.5278 0019681 209.9718 150.0283 15.18803593426522
BEESAT-2                
1 39136U 13015G   21006.42532035  .00001608  00000-0  87273-4 0  9991
2 39136  64.8742  11.4049 0030099 264.0060  95.7637 15.18181597425917
ZACUBE-1 (TSHEPISOSAT)  
1 39417U 13066B   21006.88852409  .00000364  00000-0  51831-4 0  9998
2 39417  97.5783 359.7402 0058052 332.1926  27.6187 14.81403041385150
GOMX-1                  
1 39430U 13066Q   21007.22296240  .00000216  00000-0  48522-4 0  9996
2 39430  97.8071 299.6056 0149371 262.7695  95.6497 14.59518550379521
CUBEBUG-2 (LO-74)       
1 39440U 13066AA  21006.99270644  .00000382  00000-0  59553-4 0  9990
2 39440  97.6556 344.5195 0080951  40.2712 320.4457 14.76134633383805
FUNCUBE-1 (AO-73)       
1 39444U 13066AE  21006.90267319  .00000452  00000-0  61442-4 0  9998
2 39444  97.5705   2.0767 0056940 323.2513  36.4803 14.82286345383500
UWE-3                   
1 39446U 13066AG  21006.90351900  .00000387  00000-0  57517-4 0  9995
2 39446  97.6187 351.5169 0070022   7.3753 352.8471 14.78670545382631
SPROUT                  
1 39770U 14029E   21007.18417883  .00000817  00000-0  94836-4 0  9992
2 39770  97.9076 118.7731 0009451  24.9576 335.2088 14.88111646359350
UNISAT-6                
1 40012U 14033C   21007.16994670  .00000234  00000-0  41669-4 0  9999
2 40012  97.6871 217.9281 0059423  62.5123 298.2110 14.74222458352438
DUCHIFAT-1              
1 40021U 14033M   21007.09370314  .00000735  00000-0  79868-4 0  9992
2 40021  97.9595 305.7414 0012496 342.6585  17.4204 14.91135859356235
QB50P1                  
1 40025U 14033R   21006.84261014  .00000358  00000-0  43800-4 0  9992
2 40025  97.9255 297.2049 0012346 357.0761   3.0381 14.89298616355369
NUDT-PHONESAT           
1 40900U 15049B   21007.11635939  .00002966  00000-0  12067-3 0  9991
2 40900  97.4260  22.3773 0012067 356.0568  78.8145 15.25254507294224
ZDPS 2A                 
1 40901U 15049C   21007.14786525  .00001478  00000-0  73944-4 0  9992
2 40901  97.4627  16.2377 0014117  30.1449  34.4260 15.18904484293481
ZDPS 2B                 
1 40902U 15049D   21007.13002775  .00001759  00000-0  87366-4 0  9995
2 40902  97.4644  13.5023 0014149  27.7406  37.7426 15.18918598293457
XW-2A                   
1 40903U 15049E   21007.13319088  .00002653  00000-0  59696-4 0  9993
2 40903  97.2608  62.0081 0011099 238.9763 205.5351 15.44169422297899
KAITUO 1A               
1 40904U 15049F   21007.18125921  .00000445  00000-0  26644-4 0  9994
2 40904  97.4824  11.2233 0015639  41.9904  88.6688 15.15952155293104
2015-049G               
1 40905U 15049G   21007.14546957  .00000305  00000-0  19942-4 0  9995
2 40905  97.4938   8.3120 0016692  40.1861  24.0166 15.14779428292918
XW-2C                   
1 40906U 15049H   21007.10469169  .00000752  00000-0  42035-4 0  9996
2 40906  97.4824  11.5513 0015578  33.2162  39.2451 15.16411696293114
XW-2D                   
1 40907U 15049J   21007.12936227  .00001052  00000-0  57010-4 0  9996
2 40907  97.4812  11.3224 0014869  30.1824  34.4634 15.16690276293148
LILACSAT-2              
1 40908U 15049K   21007.11711043  .00000652  00000-0  39157-4 0  9990
2 40908  97.4987   9.3829 0016879  42.4086  22.5240 15.14246097292819
XW-2F                   
1 40910U 15049M   21007.15539438  .00001286  00000-0  65548-4 0  9990
2 40910  97.4709  14.2162 0015058  18.2261  46.0156 15.18493290293241
XW-2B                   
1 40911U 15049N   21007.12357900  .00001065  00000-0  57840-4 0  9991
2 40911  97.4818  12.0129 0014825  31.3606  33.5515 15.16611826293034
KAITUO 1B               
1 40912U 15049P   21007.15463815  .00001568  00000-0  73818-4 0  9999
2 40912  97.4471  18.5283 0014344 353.7988  70.7031 15.20960632293675
TIANWANG 1C (TW-1C)     
1 40926U 15051B   21007.15892231  .00170145  00000-0  67158-3 0  9992
2 40926  97.0513  67.8130 0003175  44.4178  13.0573 15.86375617299038
TIANWANG 1A (TW-1A)     
1 40928U 15051D   21007.12945471  .00003674  00000-0  81783-4 0  9999
2 40928  97.0924  35.9594 0010764 153.9628 277.9459 15.44199464296785
LAPAN-A2                
1 40931U 15052B   21007.18940011  .00000847  00000-0  28850-4 0  9990
2 40931   5.9989 322.4845 0013681 284.3464  75.6015 14.76659564285425
E-ST@R-II               
1 41459U 16025D   21007.07252799  .00002786  00000-0  14146-3 0  9990
2 41459  98.1211 134.0014 0161653 245.9767 112.4456 15.07217752258108
AAUSAT 4                
1 41460U 16025E   21007.01188597  .00004340  00000-0  20930-3 0  9996
2 41460  98.1209 137.0552 0150049 232.4033 126.3485 15.09890324258347
NUSAT-1 (FRESCO)        
1 41557U 16033B   21007.08839729  .00001763  00000-0  65631-4 0  9993
2 41557  97.3982 102.0194 0014898  87.8777  12.4230 15.28739273256870
BEESAT-4                
1 41619U 16040W   21006.73038854  .00002206  00000-0  91753-4 0  9998
2 41619  97.2943  67.2203 0010983 174.3304 185.8061 15.24763165240364
